{
  "type": "FeatureCollection",
  "features": [
    {
      "type": "Feature",
      "properties": {
        "norad_id": 55268,
        "name": "GPS BIII-6  (PRN 28)",
        "group": "gnss",
        "lat": 35.93304371375708,
        "lon": -54.69839785066496,
        "alt_km": 20185.707667973773,
        "timestamp": "2025-12-16T03:53:27.299214+00:00",
        "meta_object_name": "GPS BIII-6  (PRN 28)",
        "meta_object_id": "2023-009A",
        "meta_epoch": "2025-12-13T12:37:03.021024",
        "meta_mean_motion": 2.00555696,
        "meta_eccentricity": 0.00037118,
        "meta_inclination": 55.1051,
        "meta_ra_of_asc_node": 155.8142,
        "meta_arg_of_pericenter": 357.4368,
        "meta_mean_anomaly": 33.2544,
        "meta_ephemeris_type": 0,
        "meta_classification_type": "U",
        "meta_norad_cat_id": 55268,
        "meta_element_set_no": 999,
        "meta_rev_at_epoch": 2152,
        "meta_bstar": 0,
        "meta_mean_motion_dot": 1e-06,
        "meta_mean_motion_ddot": 0,
        "tle_line1": "1 55268U 23009A   25347.52572941  .00000100  00000+0  00000+0 0  9995",
        "tle_line2": "2 55268  55.1051 155.8142 0003711 357.4368  33.2544  2.00555696 21528"
      },
      "geometry": {
        "type": "Point",
        "coordinates": [
          -54.69839785066496,
          35.93304371375708
        ]
      }
    },
    {
      "type": "Feature",
      "properties": {
        "norad_id": 56564,
        "name": "BEIDOU-3 G4 (C62)",
        "group": "gnss",
        "lat": 0.00549287973936174,
        "lon": -56.50679969592817,
        "alt_km": 35793.9749541749,
        "timestamp": "2025-12-16T03:53:27.299232+00:00",
        "meta_object_name": "BEIDOU-3 G4 (C62)",
        "meta_object_id": "2023-066A",
        "meta_epoch": "2025-12-15T07:27:38.575296",
        "meta_mean_motion": 1.00271763,
        "meta_eccentricity": 0.0002817,
        "meta_inclination": 0.8091,
        "meta_ra_of_asc_node": 302.2639,
        "meta_arg_of_pericenter": 229.3821,
        "meta_mean_anomaly": 184.5453,
        "meta_ephemeris_type": 0,
        "meta_classification_type": "U",
        "meta_norad_cat_id": 56564,
        "meta_element_set_no": 999,
        "meta_rev_at_epoch": 955,
        "meta_bstar": 0,
        "meta_mean_motion_dot": -8.9e-07,
        "meta_mean_motion_ddot": 0,
        "tle_line1": "1 56564U 23066A   25349.31086314 -.00000089  00000+0  00000+0 0  9998",
        "tle_line2": "2 56564   0.8091 302.2639 0002817 229.3821 184.5453  1.00271763  9552"
      },
      "geometry": {
        "type": "Point",
        "coordinates": [
          -56.50679969592817,
          0.00549287973936174
        ]
      }
    },
    {
      "type": "Feature",
      "properties": {
        "norad_id": 56759,
        "name": "NVS-01 (IRNSS-1J)",
        "group": "gnss",
        "lat": 0.9320264282050199,
        "lon": -87.10386511663808,
        "alt_km": 35747.4416385457,
        "timestamp": "2025-12-16T03:53:27.299251+00:00",
        "meta_object_name": "NVS-01 (IRNSS-1J)",
        "meta_object_id": "2023-076A",
        "meta_epoch": "2025-12-15T07:09:21.525984",
        "meta_mean_motion": 1.00276414,
        "meta_eccentricity": 0.00088727,
        "meta_inclination": 2.6119,
        "meta_ra_of_asc_node": 251.505,
        "meta_arg_of_pericenter": 15.1057,
        "meta_mean_anomaly": 54.4216,
        "meta_ephemeris_type": 0,
        "meta_classification_type": "U",
        "meta_norad_cat_id": 56759,
        "meta_element_set_no": 999,
        "meta_rev_at_epoch": 927,
        "meta_bstar": 0,
        "meta_mean_motion_dot": -3.12e-06,
        "meta_mean_motion_ddot": 0,
        "tle_line1": "1 56759U 23076A   25349.29816581 -.00000312  00000+0  00000+0 0  9998",
        "tle_line2": "2 56759   2.6119 251.5050 0008872  15.1057  54.4216  1.00276414  9270"
      },
      "geometry": {
        "type": "Point",
        "coordinates": [
          -87.10386511663808,
          0.9320264282050199
        ]
      }
    },
    {
      "type": "Feature",
      "properties": {
        "norad_id": 57517,
        "name": "COSMOS 2569 (703K)",
        "group": "gnss",
        "lat": -53.48527591817026,
        "lon": 40.2241938575616,
        "alt_km": 19109.31390591887,
        "timestamp": "2025-12-16T03:53:27.299269+00:00",
        "meta_object_name": "COSMOS 2569 (703K)",
        "meta_object_id": "2023-114A",
        "meta_epoch": "2025-12-13T21:31:33.711744",
        "meta_mean_motion": 2.13104015,
        "meta_eccentricity": 0.00105602,
        "meta_inclination": 65.1948,
        "meta_ra_of_asc_node": 78.8743,
        "meta_arg_of_pericenter": 286.9875,
        "meta_mean_anomaly": 72.9108,
        "meta_ephemeris_type": 0,
        "meta_classification_type": "U",
        "meta_norad_cat_id": 57517,
        "meta_element_set_no": 999,
        "meta_rev_at_epoch": 1831,
        "meta_bstar": 0,
        "meta_mean_motion_dot": -5.2e-07,
        "meta_mean_motion_ddot": 0,
        "tle_line1": "1 57517U 23114A   25347.89691796 -.00000052  00000+0  00000+0 0  9998",
        "tle_line2": "2 57517  65.1948  78.8743 0010560 286.9875  72.9108  2.13104015 18311"
      },
      "geometry": {
        "type": "Point",
        "coordinates": [
          40.2241938575616,
          -53.48527591817026
        ]
      }
    },
    {
      "type": "Feature",
      "properties": {
        "norad_id": 58654,
        "name": "BEIDOU-3 M28 (C50)",
        "group": "gnss",
        "lat": -18.978953840098985,
        "lon": 54.879217020982935,
        "alt_km": 21528.008463730926,
        "timestamp": "2025-12-16T03:53:27.299286+00:00",
        "meta_object_name": "BEIDOU-3 M28 (C50)",
        "meta_object_id": "2023-207A",
        "meta_epoch": "2025-12-14T14:03:38.795616",
        "meta_mean_motion": 1.86229811,
        "meta_eccentricity": 0.00024957,
        "meta_inclination": 55.586,
        "meta_ra_of_asc_node": 68.5388,
        "meta_arg_of_pericenter": 270.6394,
        "meta_mean_anomaly": 89.3503,
        "meta_ephemeris_type": 0,
        "meta_classification_type": "U",
        "meta_norad_cat_id": 58654,
        "meta_element_set_no": 999,
        "meta_rev_at_epoch": 1340,
        "meta_bstar": 0,
        "meta_mean_motion_dot": -8.4e-07,
        "meta_mean_motion_ddot": 0,
        "tle_line1": "1 58654U 23207A   25348.58586569 -.00000084  00000+0  00000+0 0  9997",
        "tle_line2": "2 58654  55.5860  68.5388 0002495 270.6394  89.3503  1.86229811 13402"
      },
      "geometry": {
        "type": "Point",
        "coordinates": [
          54.879217020982935,
          -18.978953840098985
        ]
      }
    },
    {
      "type": "Feature",
      "properties": {
        "norad_id": 58655,
        "name": "BEIDOU-3 M26 (C48)",
        "group": "gnss",
        "lat": 49.70405788968359,
        "lon": -165.33818486884593,
        "alt_km": 21530.942467986,
        "timestamp": "2025-12-16T03:53:27.299306+00:00",
        "meta_object_name": "BEIDOU-3 M26 (C48)",
        "meta_object_id": "2023-207B",
        "meta_epoch": "2025-12-14T09:12:13.791744",
        "meta_mean_motion": 1.86231292,
        "meta_eccentricity": 0.00038911,
        "meta_inclination": 55.5879,
        "meta_ra_of_asc_node": 68.532,
        "meta_arg_of_pericenter": 256.6064,
        "meta_mean_anomaly": 103.3685,
        "meta_ephemeris_type": 0,
        "meta_classification_type": "U",
        "meta_norad_cat_id": 58655,
        "meta_element_set_no": 999,
        "meta_rev_at_epoch": 1338,
        "meta_bstar": 0,
        "meta_mean_motion_dot": -8.4e-07,
        "meta_mean_motion_ddot": 0,
        "tle_line1": "1 58655U 23207B   25348.38349296 -.00000084  00000+0  00000+0 0  9990",
        "tle_line2": "2 58655  55.5879  68.5320 0003891 256.6064 103.3685  1.86231292 13389"
      },
      "geometry": {
        "type": "Point",
        "coordinates": [
          -165.33818486884593,
          49.70405788968359
        ]
      }
    },
    {
      "type": "Feature",
      "properties": {
        "norad_id": 59598,
        "name": "GSAT0225 (GALILEO 29)",
        "group": "gnss",
        "lat": -30.74276370054644,
        "lon": -49.21494858694081,
        "alt_km": 23221.214474520755,
        "timestamp": "2025-12-16T03:53:27.299324+00:00",
        "meta_object_name": "GSAT0225 (GALILEO 29)",
        "meta_object_id": "2024-079A",
        "meta_epoch": "2025-12-13T14:17:14.853120",
        "meta_mean_motion": 1.7047497,
        "meta_eccentricity": 0.00020845,
        "meta_inclination": 55.0023,
        "meta_ra_of_asc_node": 106.2711,
        "meta_arg_of_pericenter": 178.8578,
        "meta_mean_anomaly": 264.3288,
        "meta_ephemeris_type": 0,
        "meta_classification_type": "U",
        "meta_norad_cat_id": 59598,
        "meta_element_set_no": 999,
        "meta_rev_at_epoch": 1015,
        "meta_bstar": 0,
        "meta_mean_motion_dot": -1e-08,
        "meta_mean_motion_ddot": 0,
        "tle_line1": "1 59598U 24079A   25347.59531080 -.00000001  00000+0  00000+0 0  9990",
        "tle_line2": "2 59598  55.0023 106.2711 0002084 178.8578 264.3288  1.70474970 10158"
      },
      "geometry": {
        "type": "Point",
        "coordinates": [
          -49.21494858694081,
          -30.74276370054644
        ]
      }
    }
  ]
}